0 BREEZE-M DEB
1 39327U 08011DE  13287.18503927 -.00000011  00000-0  10000-3 0    11
2 39327 049.3560 199.9386 6533913 226.8091 055.9909 02.94908456 18166
